NORAD_CAT_ID,OBJECT_NAME,OBJECT_TYPE,EPOCH,MEAN_MOTION,ECCENTRICITY,INCLINATION,RA_OF_ASC_NODE,ARG_OF_PERICENTER,MEAN_ANOMALY,BSTAR,MEAN_MOTION_DOT,MEAN_MOTION_DDOT,TLE_LINE0,TLE_LINE1,TLE_LINE2,SEMIMAJOR_AXIS,PERIOD,APOGEE,PERIGEE,DECAYED
55431.0,STARLINK-5643,PAYLOAD,2023-07-31 09:29:02,14.98328547,0.0003563,70.0006,325.6923,267.7452,92.33,2.4541e-05,2e-06,0.0,0 STARLINK-5643,1 55431U 23014AS  23212.39516516  .00000200  00000-0  24541-4 0  9996,2 55431  70.0006 325.6923 0003563 267.7452  92.3300 14.98328547 27976,6950.197,96.107,574.539,569.586,0.0
55431.0,STARLINK-5643,PAYLOAD,2023-07-31 17:29:42,14.98336744,0.000351,70.0008,324.8511,268.277,91.7987,5.6059e-05,5.76e-06,0.0,0 STARLINK-5643,1 55431U 23014AS  23212.72895883  .00000576  00000-0  56059-4 0  9995,2 55431  70.0008 324.8511 0003510 268.2770  91.7987 14.98336744 28022,6950.172,96.107,574.477,569.598,0.0
55431.0,STARLINK-5643,PAYLOAD,2023-08-01 11:07:10,14.98331528,0.0003413,70.0012,322.9996,268.8736,91.2032,2.7908e-05,2.4e-06,0.0,0 STARLINK-5643,1 55431U 23014AS  23213.46332131  .00000240  00000-0  27908-4 0  9998,2 55431  70.0012 322.9996 0003413 268.8736  91.2032 14.98331528 28136,6950.188,96.107,574.425,569.681,0.0
55431.0,STARLINK-5643,PAYLOAD,2023-08-02 09:33:04,14.98320916,0.000326,70.0019,320.6443,267.1476,92.931,0.00010702,1.184e-05,0.0,0 STARLINK-5643,1 55431U 23014AS  23214.39796458  .00001184  00000-0  10702-3 0  9998,2 55431  70.0019 320.6443 0003260 267.1476  92.9310 14.98320916 28279,6950.221,96.108,574.352,569.82,0.0
55431.0,STARLINK-5643,PAYLOAD,2023-08-02 17:33:44,14.98331538,0.0003128,70.002,319.8028,264.8459,95.2343,1.7422e-05,1.15e-06,0.0,0 STARLINK-5643,1 55431U 23014AS  23214.73175989  .00000115  00000-0  17422-4 0  9996,2 55431  70.0020 319.8028 0003128 264.8459  95.2343 14.98331538 28328,6950.188,96.107,574.227,569.879,0.0
55431.0,STARLINK-5643,PAYLOAD,2023-08-04 11:13:14,14.98322799,0.0003191,70.0017,315.4265,263.5246,96.555,-4.7847e-05,-6.64e-06,0.0,0 STARLINK-5643,1 55431U 23014AS  23216.46752684 -.00000664  00000-0 -47847-4 0  9996,2 55431  70.0017 315.4265 0003191 263.5246  96.5550 14.98322799 28580,6950.215,96.107,574.298,569.862,0.0
55431.0,STARLINK-5643,PAYLOAD,2023-08-05 00:02:18,14.9832985,0.0003334,70.0014,314.0803,265.158,94.9199,-4.8327e-06,-1.51e-06,0.0,0 STARLINK-5643,1 55431U 23014AS  23217.00160240 -.00000151  00000-0 -48327-5 0  9994,2 55431  70.0014 314.0803 0003334 265.1580  94.9199 14.98329850 28663,6950.193,96.107,574.376,569.741,0.0
55431.0,STARLINK-5643,PAYLOAD,2023-08-05 16:03:38,14.9834023,0.000325,70.0014,312.3971,262.6206,97.4584,0.00014453,1.632e-05,0.0,0 STARLINK-5643,1 55431U 23014AS  23217.66919043  .00001632  00000-0  14453-3 0  9993,2 55431  70.0014 312.3971 0003250 262.6206  97.4584 14.98340230 28766,6950.161,96.106,574.285,569.767,0.0
55431.0,STARLINK-5643,PAYLOAD,2023-08-06 00:04:19,14.9833179,0.0002707,70.0021,311.5583,280.2642,79.8212,7.1819e-05,7.64e-06,0.0,0 STARLINK-5643,1 55431U 23014AS  23218.00299965  .00000764  00000-0  71819-4 0  9991,2 55431  70.0021 311.5583 0002707 280.2642  79.8212 14.98331790 28819,6950.187,96.107,573.934,570.171,0.0
55431.0,STARLINK-5643,PAYLOAD,2023-08-06 09:41:08,14.98321393,0.0003102,70.0006,310.5447,273.969,86.1114,-2.115e-05,-3.45e-06,0.0,0 STARLINK-5643,1 55431U 23014AS  23218.40356851 -.00000345  00000-0 -21150-4 0  9993,2 55431  70.0006 310.5447 0003102 273.9690  86.1114 14.98321393 28878,6950.22,96.108,574.24,569.929,0.0
55431.0,STARLINK-5643,PAYLOAD,2023-08-07 09:43:08,14.98331468,0.0003559,70.0003,308.0194,271.0241,89.051,-1.6549e-05,-2.91e-06,0.0,0 STARLINK-5643,1 55431U 23014AS  23219.40496498 -.00000291  00000-0 -16549-4 0  9992,2 55431  70.0003 308.0194 0003559 271.0241  89.0510 14.98331468 29027,6950.188,96.107,574.527,569.58,0.0
55431.0,STARLINK-5643,PAYLOAD,2023-08-07 14:31:32,14.98338,0.0003681,70.0001,307.5144,271.8485,88.2252,-2.223e-05,-3.58e-06,0.0,0 STARLINK-5643,1 55431U 23014AS  23219.60524083 -.00000358  00000-0 -22230-4 0  9994,2 55431  70.0001 307.5144 0003681 271.8485  88.2252 14.98338000 29054,6950.168,96.106,574.592,569.475,0.0
55431.0,STARLINK-5643,PAYLOAD,2023-08-08 04:56:45,14.9832456,0.0003684,70.0002,305.9995,273.915,86.1588,0.0001692,1.926e-05,0.0,0 STARLINK-5643,1 55431U 23014AS  23220.20608219  .00001926  00000-0  16920-3 0  9994,2 55431  70.0002 305.9995 0003684 273.9150  86.1588 14.98324560 29141,6950.21,96.107,574.635,569.514,0.0
55431.0,STARLINK-5643,PAYLOAD,2023-08-09 11:23:20,14.98315412,0.0003986,70.0005,302.8035,275.8701,84.2003,-0.00015109,-1.895e-05,0.0,0 STARLINK-5643,1 55431U 23014AS  23221.47453855 -.00001895  00000-0 -15109-3 0  9993,2 55431  70.0005 302.8035 0003986 275.8701  84.2003 14.98315412 29331,6950.238,96.108,574.873,569.333,0.0
55431.0,STARLINK-5643,PAYLOAD,2023-08-10 11:25:20,14.98326938,0.0003827,69.9996,300.2765,270.0564,90.0156,-8.6604e-05,-1.126e-05,0.0,0 STARLINK-5643,1 55431U 23014AS  23222.47593648 -.00001126  00000-0 -86604-4 0  9995,2 55431  69.9996 300.2765 0003827 270.0564  90.0156 14.98326938 29482,6950.202,96.107,574.727,569.408,0.0
55431.0,STARLINK-5643,PAYLOAD,2023-08-11 11:27:21,14.98336206,0.0003768,69.9995,297.7516,265.6377,94.4351,8.7407e-05,9.5e-06,0.0,0 STARLINK-5643,1 55431U 23014AS  23223.47732652  .00000950  00000-0  87407-4 0  9990,2 55431  69.9995 297.7516 0003768 265.6377  94.4351 14.98336206 29632,6950.174,96.107,574.658,569.42,0.0
55431.0,STARLINK-5643,PAYLOAD,2023-08-11 22:40:17,14.98327581,0.0003755,69.9997,296.5734,268.8491,91.2238,0.0002624,3.039e-05,0.0,0 STARLINK-5643,1 55431U 23014AS  23223.94464888  .00003039  00000-0  26240-3 0  9993,2 55431  69.9997 296.5734 0003755 268.8491  91.2238 14.98327581 29704,6950.2,96.107,574.675,569.456,0.0
55431.0,STARLINK-5643,PAYLOAD,2023-08-12 09:53:13,14.98339006,0.0003842,69.9995,295.3949,268.0142,92.0577,0.00018107,2.069e-05,0.0,0 STARLINK-5643,1 55431U 23014AS  23224.41196167  .00002069  00000-0  18107-3 0  9993,2 55431  69.9995 295.3949 0003842 268.0142  92.0577 14.98339006 29776,6950.165,96.106,574.7,569.36,0.0
55431.0,STARLINK-5643,PAYLOAD,2023-08-13 14:43:38,14.98339183,0.00038,69.9996,292.3647,267.4807,92.5917,-8.6072e-05,-1.12e-05,0.0,0 STARLINK-5643,1 55431U 23014AS  23225.61364092 -.00001120  00000-0 -86072-4 0  9996,2 55431  69.9996 292.3647 0003800 267.4807  92.5917 14.98339183 29953,6950.164,96.106,574.671,569.388,0.0
55431.0,STARLINK-5643,PAYLOAD,2023-08-15 09:59:15,14.98331964,0.0003538,70.0,287.8206,270.2878,89.7876,1.4305e-05,7.8e-07,0.0,0 STARLINK-5643,1 55431U 23014AS  23227.41615603  .00000078  00000-0  14305-4 0  9992,2 55431  70.0000 287.8206 0003538 270.2878  89.7876 14.98331964 30223,6950.187,96.107,574.511,569.593,0.0
55431.0,STARLINK-5643,PAYLOAD,2023-08-16 10:01:17,14.98327232,0.0003717,69.9994,285.2958,269.5431,90.5302,-3.2746e-05,-4.84e-06,0.0,0 STARLINK-5643,1 55431U 23014AS  23228.41755961 -.00000484  00000-0 -32746-4 0  9997,2 55431  69.9994 285.2958 0003717 269.5431  90.5302 14.98327232 30376,6950.201,96.107,574.65,569.483,0.0
55431.0,STARLINK-5643,PAYLOAD,2023-08-17 10:03:17,14.9833165,0.0003764,69.999,282.7706,270.3078,89.765,-2.6084e-06,-1.24e-06,0.0,0 STARLINK-5643,1 55431U 23014AS  23229.41895542 -.00000124  00000-0 -26084-5 0  9998,2 55431  69.9990 282.7706 0003764 270.3078  89.7650 14.98331650 30526,6950.188,96.107,574.669,569.437,0.0
55431.0,STARLINK-5643,PAYLOAD,2023-08-18 10:05:19,14.98325411,0.0003759,69.9989,280.2458,270.151,89.9218,1.0339e-05,3e-07,0.0,0 STARLINK-5643,1 55431U 23014AS  23230.42035901  .00000030  00000-0  10339-4 0  9995,2 55431  69.9989 280.2458 0003759 270.1510  89.9218 14.98325411 30670,6950.207,96.107,574.685,569.459,0.0
55431.0,STARLINK-5643,PAYLOAD,2023-08-19 02:06:39,14.98331357,0.0003742,69.9988,278.5622,269.6155,90.4576,2.6081e-05,2.18e-06,0.0,0 STARLINK-5643,1 55431U 23014AS  23231.08795438  .00000218  00000-0  26081-4 0  9995,2 55431  69.9988 278.5622 0003742 269.6155  90.4576 14.98331357 30773,6950.189,96.107,574.654,569.453,0.0
55431.0,STARLINK-5643,PAYLOAD,2023-08-20 03:44:48,14.98327062,0.0003593,69.9998,275.8692,270.6984,89.3764,2.1803e-05,1.67e-06,0.0,0 STARLINK-5643,1 55431U 23014AS  23232.15611607  .00000167  00000-0  21803-4 0  9999,2 55431  69.9998 275.8692 0003593 270.6984  89.3764 14.98327062 30939,6950.202,96.107,574.564,569.57,0.0
55431.0,STARLINK-5643,PAYLOAD,2023-08-21 10:11:21,14.98331611,0.0003556,69.9987,272.6708,267.8907,92.1844,1.9158e-05,1.36e-06,0.0,0 STARLINK-5643,1 55431U 23014AS  23233.42455249  .00000136  00000-0  19158-4 0  9994,2 55431  69.9987 272.6708 0003556 267.8907  92.1844 14.98331611 31120,6950.188,96.107,574.524,569.581,0.0
55431.0,STARLINK-5643,PAYLOAD,2023-08-22 10:13:21,14.98338313,0.0003684,69.9987,270.1459,285.7185,74.3567,0.00013957,1.573e-05,0.0,0 STARLINK-5643,1 55431U 23014AS  23234.42594763  .00001573  00000-0  13957-3 0  9996,2 55431  69.9987 270.1459 0003684 285.7185  74.3567 14.98338313 31271,6950.167,96.106,574.593,569.472,0.0
55431.0,STARLINK-5643,PAYLOAD,2023-08-22 13:25:38,14.98324951,0.0003599,69.999,269.8095,264.1066,95.9683,-1.5274e-05,-2.75e-06,0.0,0 STARLINK-5643,1 55431U 23014AS  23234.55947714 -.00000275  00000-0 -15274-4 0  9993,2 55431  69.9990 269.8095 0003599 264.1066  95.9683 14.98324951 31293,6950.209,96.107,574.575,569.572,0.0
55431.0,STARLINK-5643,PAYLOAD,2023-08-24 11:53:32,14.98325723,0.0003709,69.998,264.927,267.6787,92.3947,0.00012082,1.349e-05,0.0,0 STARLINK-5643,1 55431U 23014AS  23236.49551343  .00001349  00000-0  12082-3 0  9991,2 55431  69.9980 264.9270 0003709 267.6787  92.3947 14.98325723 32523,6950.206,96.107,574.649,569.493,0.0
55431.0,STARLINK-5643,PAYLOAD,2023-08-25 02:18:44,14.98330266,0.0003815,69.998,263.4121,269.1375,90.9347,1.4859e-05,8.4e-07,0.0,0 STARLINK-5643,1 55431U 23014AS  23237.09635287  .00000084  00000-0  14859-4 0  9998,2 55431  69.9980 263.4121 0003815 269.1375  90.9347 14.98330266 31671,6950.192,96.107,574.709,569.406,0.0
